#aV2011  8 20  0  0   .00000000      96 DD+AD WGS84 FIT  NGA
## 1649 518400.00000000   900.00000000 55793  .0000000000000
+   32     1  2  3  4  5  6  7  8  9 10 11 12 13 14 15 16 17
+         18 19 20 21 22 23 24 25 26 27 28 29 30 31 32  0  0
+          0  0  0  0  0  0  0  0  0  0  0  0  0  0  0  0  0
+          0  0  0  0  0  0  0  0  0  0  0  0  0  0  0  0  0
+          0  0  0  0  0  0  0  0  0  0  0  0  0  0  0  0  0
++         0  0  0  0  0  0  0  0  0  0  0  0  0  0  0  0  0
++         0  0  0  0  0  0  0  0  0  0  0  0  0  0  0  0  0
++         0  0  0  0  0  0  0  0  0  0  0  0  0  0  0  0  0
++         0  0  0  0  0  0  0  0  0  0  0  0  0  0  0  0  0
++         0  0  0  0  0  0  0  0  0  0  0  0  0  0  0  0  0
%c cc cc ccc ccc cccc cccc cccc cccc ccccc ccccc ccccc ccccc
%c cc cc ccc ccc cccc cccc cccc cccc ccccc ccccc ccccc ccccc
%f  0.0000000  0.000000000  0.00000000000  0.000000000000000
%f  0.0000000  0.000000000  0.00000000000  0.000000000000000
%i    0    0    0    0      0      0      0      0         0
%i    0    0    0    0      0      0      0      0         0
/*      NGA, ST. LOUIS,MO.                                  
/*   EPHEMERIS COMPUTED FROM  3 DAYS OF DATA                
/* CCCCCCCCCCCCCCCCCCCCCCCCCCCCCCCCCCCCCCCCCCCCCCCCCCCCCCCCC
/* CCCCCCCCCCCCCCCCCCCCCCCCCCCCCCCCCCCCCCCCCCCCCCCCCCCCCCCCC
*  2011  8 20 12 45   .00000000                                                 
P  1 -22505.230438 -13629.961542  -3608.560280     -7.670761                    
V  1   5337.666260   -540.429135 -31312.172537      -.013558                    
P  2   4916.476162  17889.119586  19242.490407    352.164090                    
V  2 -22451.713269  -9159.507312  13808.392474       .016979                    
P  3   3608.915485 -20173.411336 -17170.013716    757.316181                    
V  3  17502.854198 -12175.172465  18767.694489       .050092                    
P  4 -12067.568811  11027.464554  20767.637834    206.941289                    
V  4 -23836.752992 -12482.344009  -6808.670863       .110877                    
P  5   1700.742218  26445.282332    126.049304   -206.574456                    
V  5  -3168.283165     40.360846  31653.174521      -.053726                    
P  6   9474.714972 -20137.072424 -14166.625682    -91.655167                    
V  6  16446.462977  -8734.329923  23423.515274       .100642                    
P  7 -24158.248000  -4254.648914 -10471.668951     22.888731                    
V  7 -10926.769872  -7658.822277  28074.528258       .016898                    
P  8 -19945.883472   1319.932071 -17743.351852      8.950626                    
V  8 -18707.412979 -12159.334153  19538.618577       .000900                    
P  9  20193.235675  15481.828518  -8125.779059    100.387032                    
V  9  -9421.375343  -2394.032486 -30047.681073       .024203                    
P 10  -9981.368969  19090.204155  15064.533622    -10.527343                    
V 10  -3478.672515 -19569.447008  22546.977608      -.011510                    
P 11 -20072.693780 -13618.300157 -11535.588709   -178.592369                    
V 11  14706.251330   -978.471049 -24829.559549      -.033503                    
P 12  11836.349002  17462.496042  16252.585751     17.041505                    
V 12   -492.579940  20562.906392 -21577.452040       .024528                    
P 13 -22299.695967   1623.783137  14255.527903    255.487377                    
V 13  15272.219800 -10117.302418  24724.994506      -.018111                    
P 14  21408.903043 -15228.817149   3462.953338    168.023468                    
V 14   4748.100808   -198.889447 -31918.640204       .019644                    
P 15   9704.509825  12075.860843 -21569.487948   -109.916475                    
V 15 -22490.667951  15733.499028  -1141.583939       .017563                    
P 16  -1523.790469 -26328.151342  -1105.492497   -192.858752                    
V 16   2516.350888  -1502.585209  32269.555712      -.022805                    
P 17 -20529.685150  16176.374310   4090.443157    178.500890                    
V 17  -5832.596712    196.560627 -31363.392138      -.014567                    
P 18  15503.016487  -2769.475810 -21032.212705    153.213579                    
V 18   1890.221853  27570.668273  -2574.303029       .018854                    
P 19  -6008.796132 -14069.693950 -21714.070552   -174.967334                    
V 19  24284.485184 -13019.525707   2074.353394      -.040538                    
P 20 -14003.391158 -15157.980338  16611.545515     51.934648                    
V 20     65.173041 -21554.918380 -19384.456077       .004366                    
P 21  23607.757739   1725.346808 -12196.951361   -165.926494                    
V 21  13069.616442   9638.406048  25149.959315      -.025183                    
P 22  11494.959697 -17148.877840 -16468.564063    145.234021                    
V 22   3521.245776  21250.375644 -19570.431448      -.003752                    
P 23 -16789.197700  -5592.809711  19932.214350    282.598634                    
V 23  20573.509331 -14509.977146  12911.567132      -.029704                    
P 24 -21469.272550 -15384.673215  -4031.110302    416.921287                    
V 24   5905.635362    -14.271185 -30727.025679       .033089                    
P 25  15139.085289   5016.127130  21214.223688     14.846961                    
V 25   1493.584887  26952.339260  -7401.781552       .017963                    
P 26  -3004.435581  17202.901171 -20483.605660   -129.732721                    
V 26 -22027.316450  11318.207023  13502.830240      -.123939                    
P 27  17190.782498  16202.810649 -11845.669740    296.744506                    
V 27 -15261.267521  -4800.705845 -26887.877397       .038122                    
P 28 -12316.631190  13551.482799 -18621.423223     61.015146                    
V 28  -2033.987617 -24759.614915 -16468.197408       .029000                    
P 29  22195.488566  -1732.816476  14521.955726    232.877251                    
V 29 -14548.620648  11348.767317  23746.307296       .030959                    
P 30  15566.010300   5426.802534  20467.406814     92.960895                    
V 30   3512.604783  26625.432089  -9552.005419      -.018879                    
P 31   8552.217514 -12304.643462  22139.111889    129.170001                    
V 31  24548.020919  12528.318467  -2335.887965       .056564                    
P 32  -8194.321271 -22489.829460  12228.409225   -313.953846                    
V 32   2457.010950 -14914.417844 -25946.072403      -.068877                    
EOF
